ONEWEB-0607             
1 54671U 22166AF  24175.54368165  .00000062  00000+0  11798-3 0  9993
2 54671  87.9284  28.0192 0001886  96.5205 263.6143 13.21826537 75943
ONEWEB-0608             
1 54672U 22166AG  24175.54998798  .00000087  00000+0  17831-3 0  9996
2 54672  87.9289  28.0397 0001689 105.4534 254.6786 13.21826998 75957
ONEWEB-0610             
1 54673U 22166AH  24175.60675802  .00000058  00000+0  10793-3 0  9990
2 54673  87.9283  28.0231 0001673 100.8783 259.2540 13.21827108 75860
ONEWEB-0611             
1 54674U 22166AJ  24175.60044600  .00000024  00000+0  26159-4 0  9994
2 54674  87.9283  28.0232 0002096  75.5226 284.6141 13.21827495 75859
ONEWEB-0612             
1 54675U 22166AK  24175.61306569  .00000097  00000+0  20270-3 0  9998
2 54675  87.9280  28.0034 0001722  94.6998 265.4333 13.21827267 75846
ONEWEB-0615             
1 54676U 22166AL  24175.59412804  .00000041  00000+0  67019-4 0  9998
2 54676  87.9282  28.0319 0001998  92.2032 267.9331 13.21827980 75851
ONEWEB-0655             
1 54677U 22166AM  24175.56733264 -.00000003  00000+0 -39670-4 0  9994
2 54677  87.9284  28.0393 0002262  95.3587 264.7805 13.21824783 75848
ONEWEB-0659             
1 54678U 22166AN  24175.58466601  .00000021  00000+0  18242-4 0  9995
2 54678  87.9282  28.0423 0001818  79.4892 280.6447 13.21823351 75938
